ISS OBJECT XW           
1 66910U 98067XW  26052.69087995  .00101077  00000+0  10281-2 0  9999
2 66910  51.6251 146.8152 0003690   8.9060 351.2000 15.64342363 12676
ISS OBJECT XX           
1 66911U 98067XX  26052.80939251  .00152463  00000+0  13073-2 0  9991
2 66911  51.6239 145.3512 0005627   1.9750 358.1268 15.68378638 12690
ISS OBJECT XY           
1 66912U 98067XY  26052.65228300  .00071488  00000+0  84165-3 0  9999
2 66912  51.6280 148.0679 0001757  11.8811 348.2224 15.60740369 12642
ISS OBJECT XZ           
1 67683U 98067XZ  26052.49203359  .00039280  00000+0  68048-3 0  9990
2 67683  51.6314 152.2476 0010073 132.3559 227.8285 15.50458827  2278
GXIBA-1                 
1 67684U 98067YA  26052.48391139  .00073407  00000+0  12031-2 0  9993
2 67684  51.6313 152.1932 0011703 125.0335 235.1755 15.51722963  2276
CORAL                   
1 67685U 98067YB  26052.49053636  .00043161  00000+0  74046-3 0  9991
2 67685  51.6309 152.2369 0012028 128.6764 231.5303 15.50667475  2277
ISS OBJECT YC           
1 67686U 98067YC  26052.48901008  .00051525  00000+0  87491-3 0  9997
2 67686  51.6316 152.2270 0007716 100.0521 260.1340 15.50924553  2272
LEOPARD                 
1 67687U 98067YD  26052.74895337  .00038879  00000+0  67080-3 0  9993
2 67687  51.6313 150.9634 0007779 103.3723 256.8134 15.50600655  2231
ISS OBJECT YE           
1 67688U 98067YE  26052.48963721  .00047348  00000+0  80842-3 0  9990
2 67688  51.6323 152.2323 0007699 100.5477 259.6380 15.50807123  2197
CREW DRAGON 12          
1 67796U 26031A   26052.76529869  .00010666  00000+0  20704-3 0  9998
2 67796  51.6320 151.0701 0008511 119.8639 240.3195 15.48189327553837
